{
  "type": "FeatureCollection",
  "features": [
    {
      "type": "Feature",
      "properties": {
        "norad_id": 33886,
        "name": "IRIDIUM 33 DEB",
        "group": "iridium-33-debris",
        "lat": 27.719826139997696,
        "lon": -119.55210684532165,
        "alt_km": 764.1310980115677,
        "timestamp": "2025-12-24T07:45:06.583599+00:00",
        "meta_object_name": "IRIDIUM 33 DEB",
        "meta_object_id": "1997-051BF",
        "meta_epoch": "2025-12-23T15:00:29.018304",
        "meta_mean_motion": 14.36063924,
        "meta_eccentricity": 0.00133134,
        "meta_inclination": 86.3821,
        "meta_ra_of_asc_node": 62.6467,
        "meta_arg_of_pericenter": 202.9626,
        "meta_mean_anomaly": 304.7848,
        "meta_ephemeris_type": 0,
        "meta_classification_type": "U",
        "meta_norad_cat_id": 33886,
        "meta_element_set_no": 999,
        "meta_rev_at_epoch": 88208,
        "meta_bstar": 0.00017412291,
        "meta_mean_motion_dot": 5.26e-06,
        "meta_mean_motion_ddot": 0,
        "tle_line1": "1 33886U 97051BF  25357.62533586  .00000526  00000+0  17412-3 0  9990",
        "tle_line2": "2 33886  86.3821  62.6467 0013313 202.9626 304.7848 14.36063924882085"
      },
      "geometry": {
        "type": "Point",
        "coordinates": [
          -119.55210684532165,
          27.719826139997696
        ]
      }
    },
    {
      "type": "Feature",
      "properties": {
        "norad_id": 33887,
        "name": "IRIDIUM 33 DEB",
        "group": "iridium-33-debris",
        "lat": 42.72345187148843,
        "lon": 174.9779366077107,
        "alt_km": 761.3575210610934,
        "timestamp": "2025-12-24T07:45:06.583610+00:00",
        "meta_object_name": "IRIDIUM 33 DEB",
        "meta_object_id": "1997-051BG",
        "meta_epoch": "2025-12-23T22:52:59.298240",
        "meta_mean_motion": 14.37230598,
        "meta_eccentricity": 0.00056742,
        "meta_inclination": 86.3042,
        "meta_ra_of_asc_node": 358.5593,
        "meta_arg_of_pericenter": 183.3311,
        "meta_mean_anomaly": 203.0566,
        "meta_ephemeris_type": 0,
        "meta_classification_type": "U",
        "meta_norad_cat_id": 33887,
        "meta_element_set_no": 999,
        "meta_rev_at_epoch": 88326,
        "meta_bstar": 0.0001396044,
        "meta_mean_motion_dot": 4.35e-06,
        "meta_mean_motion_ddot": 0,
        "tle_line1": "1 33887U 97051BG  25357.95346410  .00000435  00000+0  13960-3 0  9998",
        "tle_line2": "2 33887  86.3042 358.5593 0005674 183.3311 203.0566 14.37230598883265"
      },
      "geometry": {
        "type": "Point",
        "coordinates": [
          174.9779366077107,
          42.72345187148843
        ]
      }
    },
    {
      "type": "Feature",
      "properties": {
        "norad_id": 33953,
        "name": "IRIDIUM 33 DEB",
        "group": "iridium-33-debris",
        "lat": 28.133100905996915,
        "lon": 50.689647874778146,
        "alt_km": 696.9422946408322,
        "timestamp": "2025-12-24T07:45:06.583621+00:00",
        "meta_object_name": "IRIDIUM 33 DEB",
        "meta_object_id": "1997-051BN",
        "meta_epoch": "2025-12-22T04:44:25.619136",
        "meta_mean_motion": 14.55406947,
        "meta_eccentricity": 0.00178347,
        "meta_inclination": 86.3836,
        "meta_ra_of_asc_node": 49.6744,
        "meta_arg_of_pericenter": 73.9809,
        "meta_mean_anomaly": 345.1929,
        "meta_ephemeris_type": 0,
        "meta_classification_type": "U",
        "meta_norad_cat_id": 33953,
        "meta_element_set_no": 999,
        "meta_rev_at_epoch": 88441,
        "meta_bstar": 0.0010994661,
        "meta_mean_motion_dot": 4.805e-05,
        "meta_mean_motion_ddot": 0,
        "tle_line1": "1 33953U 97051BN  25356.19751874  .00004805  00000+0  10995-2 0  9990",
        "tle_line2": "2 33953  86.3836  49.6744 0017834  73.9809 345.1929 14.55406947884415"
      },
      "geometry": {
        "type": "Point",
        "coordinates": [
          50.689647874778146,
          28.133100905996915
        ]
      }
    },
    {
      "type": "Feature",
      "properties": {
        "norad_id": 33960,
        "name": "IRIDIUM 33 DEB",
        "group": "iridium-33-debris",
        "lat": 5.64481288011093,
        "lon": -75.57744453909844,
        "alt_km": 609.4074492343507,
        "timestamp": "2025-12-24T07:45:06.583631+00:00",
        "meta_object_name": "IRIDIUM 33 DEB",
        "meta_object_id": "1997-051BV",
        "meta_epoch": "2025-12-22T20:25:56.627904",
        "meta_mean_motion": 14.85668232,
        "meta_eccentricity": 0.00072159,
        "meta_inclination": 86.2544,
        "meta_ra_of_asc_node": 284.7457,
        "meta_arg_of_pericenter": 44.6643,
        "meta_mean_anomaly": 15.2245,
        "meta_ephemeris_type": 0,
        "meta_classification_type": "U",
        "meta_norad_cat_id": 33960,
        "meta_element_set_no": 999,
        "meta_rev_at_epoch": 89017,
        "meta_bstar": 0.0029026593,
        "meta_mean_motion_dot": 0.00025254,
        "meta_mean_motion_ddot": 0,
        "tle_line1": "1 33960U 97051BV  25356.85134986  .00025254  00000+0  29027-2 0  9997",
        "tle_line2": "2 33960  86.2544 284.7457 0007215  44.6643  15.2245 14.85668232890170"
      },
      "geometry": {
        "type": "Point",
        "coordinates": [
          -75.57744453909844,
          5.64481288011093
        ]
      }
    },
    {
      "type": "Feature",
      "properties": {
        "norad_id": 33966,
        "name": "IRIDIUM 33 DEB",
        "group": "iridium-33-debris",
        "lat": -84.1345898295921,
        "lon": 3.149857359144062,
        "alt_km": 737.5842137350819,
        "timestamp": "2025-12-24T07:45:06.583641+00:00",
        "meta_object_name": "IRIDIUM 33 DEB",
        "meta_object_id": "1997-051CB",
        "meta_epoch": "2025-12-23T21:22:23.107008",
        "meta_mean_motion": 14.49635397,
        "meta_eccentricity": 0.0008628,
        "meta_inclination": 86.391,
        "meta_ra_of_asc_node": 41.2413,
        "meta_arg_of_pericenter": 153.5533,
        "meta_mean_anomaly": 25.6353,
        "meta_ephemeris_type": 0,
        "meta_classification_type": "U",
        "meta_norad_cat_id": 33966,
        "meta_element_set_no": 999,
        "meta_rev_at_epoch": 88603,
        "meta_bstar": 0.00047227149,
        "meta_mean_motion_dot": 1.835e-05,
        "meta_mean_motion_ddot": 0,
        "tle_line1": "1 33966U 97051CB  25357.89054522  .00001835  00000+0  47227-3 0  9997",
        "tle_line2": "2 33966  86.3910  41.2413 0008628 153.5533  25.6353 14.49635397886030"
      },
      "geometry": {
        "type": "Point",
        "coordinates": [
          3.149857359144062,
          -84.1345898295921
        ]
      }
    },
    {
      "type": "Feature",
      "properties": {
        "norad_id": 34071,
        "name": "IRIDIUM 33 DEB",
        "group": "iridium-33-debris",
        "lat": -24.50043063285102,
        "lon": 11.123494625012682,
        "alt_km": 734.2058260078593,
        "timestamp": "2025-12-24T07:45:06.583652+00:00",
        "meta_object_name": "IRIDIUM 33 DEB",
        "meta_object_id": "1997-051CE",
        "meta_epoch": "2025-12-23T23:34:51.259008",
        "meta_mean_motion": 14.49512163,
        "meta_eccentricity": 0.00098971,
        "meta_inclination": 86.3449,
        "meta_ra_of_asc_node": 12.9408,
        "meta_arg_of_pericenter": 77.6188,
        "meta_mean_anomaly": 282.6123,
        "meta_ephemeris_type": 0,
        "meta_classification_type": "U",
        "meta_norad_cat_id": 34071,
        "meta_element_set_no": 999,
        "meta_rev_at_epoch": 88497,
        "meta_bstar": 0.00062081943,
        "meta_mean_motion_dot": 2.4e-05,
        "meta_mean_motion_ddot": 0,
        "tle_line1": "1 34071U 97051CE  25357.98253772  .00002400  00000+0  62082-3 0  9998",
        "tle_line2": "2 34071  86.3449  12.9408 0009897  77.6188 282.6123 14.49512163884971"
      },
      "geometry": {
        "type": "Point",
        "coordinates": [
          11.123494625012682,
          -24.50043063285102
        ]
      }
    },
    {
      "type": "Feature",
      "properties": {
        "norad_id": 34077,
        "name": "IRIDIUM 33 DEB",
        "group": "iridium-33-debris",
        "lat": 79.53929115394273,
        "lon": -153.62092074416532,
        "alt_km": 670.7789197697202,
        "timestamp": "2025-12-24T07:45:06.583663+00:00",
        "meta_object_name": "IRIDIUM 33 DEB",
        "meta_object_id": "1997-051CL",
        "meta_epoch": "2025-12-23T22:00:51.280416",
        "meta_mean_motion": 14.64965419,
        "meta_eccentricity": 0.00088744,
        "meta_inclination": 86.3848,
        "meta_ra_of_asc_node": 46.5829,
        "meta_arg_of_pericenter": 2.9796,
        "meta_mean_anomaly": 118.3257,
        "meta_ephemeris_type": 0,
        "meta_classification_type": "U",
        "meta_norad_cat_id": 34077,
        "meta_element_set_no": 999,
        "meta_rev_at_epoch": 88496,
        "meta_bstar": 0.0014596133,
        "meta_mean_motion_dot": 7.841e-05,
        "meta_mean_motion_ddot": 0,
        "tle_line1": "1 34077U 97051CL  25357.91726019  .00007841  00000+0  14596-2 0  9996",
        "tle_line2": "2 34077  86.3848  46.5829 0008874   2.9796 118.3257 14.64965419884965"
      },
      "geometry": {
        "type": "Point",
        "coordinates": [
          -153.62092074416532,
          79.53929115394273
        ]
      }
    }
  ]
}